OBJECT_NAME,OBJECT_ID,EPOCH,MEAN_MOTION,ECCENTRICITY,INCLINATION,RA_OF_ASC_NODE,ARG_OF_PERICENTER,MEAN_ANOMALY,EPHEMERIS_TYPE,CLASSIFICATION_TYPE,NORAD_CAT_ID,ELEMENT_SET_NO,REV_AT_EPOCH,BSTAR,MEAN_MOTION_DOT,MEAN_MOTION_DDOT
SPACEMOBILE-004,2024-163E,2026-07-05T05:42:59.152032,15.20791744,.00075158,52.9657,225.9143,192.6523,167.4283,0,U,61049,999,10051,.83351746E-3,.18336E-3,0
CZ-8A R/B,2025-231K,2026-07-05T08:37:07.495392,14.30160346,.0116508,50.0053,322.0052,287.9807,70.8439,0,U,66004,999,3754,.75226718E-4,.47E-6,0
SZ-21 MODULE,2025-246C,2026-07-05T09:20:00.234240,15.78050794,.00059091,41.4707,193.8301,149.2124,210.9069,0,U,66515,999,3661,.39105179E-3,.68939E-3,0
SPACEMOBILE-006,2025-309A,2026-07-05T08:08:28.966560,15.18640942,.00107383,52.9961,248.4864,183.0805,177.0124,0,U,67232,999,2935,.14336299E-3,.2688E-4,0
SPACEMOBILE-008,2026-139A,2026-07-05T09:00:09.800352,15.12792661,.00045553,52.9937,179.9917,32.5160,327.6111,0,U,69589,999,273,.53437329E-4,.648E-5,0
SPACEMOBILE-009,2026-139B,2026-07-05T09:01:59.486880,15.12686017,.00047789,52.9928,179.9954,27.5177,332.6066,0,U,69590,999,273,.54593657E-4,.666E-5,0
SPACEMOBILE-010,2026-139C,2026-07-05T09:04:53.760000,15.12517151,.00046527,52.9932,180.0103,18.4515,341.6644,0,U,69591,999,274,.56567381E-4,.696E-5,0
